CCSDS_OMM_VERS = 2.0
CREATION_DATE  = 
ORIGINATOR     = 

OBJECT_NAME    = STARLINK-36730
OBJECT_ID      = 2026-034AA
CENTER_NAME    = EARTH
REF_FRAME      = TEME
TIME_SYSTEM    = UTC
MEAN_ELEMENT_THEORY = SGP/SGP4

EPOCH          = 2026-03-18T15:03:42.136128
MEAN_MOTION    = 15.80930516
ECCENTRICITY   = .0000915
INCLINATION    = 53.1593
RA_OF_ASC_NODE = 166.3498
ARG_OF_PERICENTER = 88.0025
MEAN_ANOMALY   = 272.1102

EPHEMERIS_TYPE = 0
CLASSIFICATION_TYPE = U
NORAD_CAT_ID   = 67874
ELEMENT_SET_NO = 999
REV_AT_EPOCH   = 535
BSTAR          = .11807E-2
MEAN_MOTION_DOT = .239549E-2
MEAN_MOTION_DDOT = 0

CCSDS_OMM_VERS = 2.0
CREATION_DATE  = 
ORIGINATOR     = 

OBJECT_NAME    = STARLINK-36727
OBJECT_ID      = 2026-034AB
CENTER_NAME    = EARTH
REF_FRAME      = TEME
TIME_SYSTEM    = UTC
MEAN_ELEMENT_THEORY = SGP/SGP4

EPOCH          = 2026-03-18T10:29:30.886656
MEAN_MOTION    = 15.81186299
ECCENTRICITY   = .00009475
INCLINATION    = 53.1599
RA_OF_ASC_NODE = 167.2971
ARG_OF_PERICENTER = 181.3717
MEAN_ANOMALY   = 178.7303

EPHEMERIS_TYPE = 0
CLASSIFICATION_TYPE = U
NORAD_CAT_ID   = 67875
ELEMENT_SET_NO = 999
REV_AT_EPOCH   = 532
BSTAR          = .24660862E-2
MEAN_MOTION_DOT = .524302E-2
MEAN_MOTION_DDOT = 0

CCSDS_OMM_VERS = 2.0
CREATION_DATE  = 
ORIGINATOR     = 

OBJECT_NAME    = STARLINK-36743
OBJECT_ID      = 2026-034AC
CENTER_NAME    = EARTH
REF_FRAME      = TEME
TIME_SYSTEM    = UTC
MEAN_ELEMENT_THEORY = SGP/SGP4

EPOCH          = 2026-03-18T10:28:26.012352
MEAN_MOTION    = 15.81160867
ECCENTRICITY   = .00003578
INCLINATION    = 53.1603
RA_OF_ASC_NODE = 167.2902
ARG_OF_PERICENTER = 189.6177
MEAN_ANOMALY   = 170.4840

EPHEMERIS_TYPE = 0
CLASSIFICATION_TYPE = U
NORAD_CAT_ID   = 67876
ELEMENT_SET_NO = 999
REV_AT_EPOCH   = 532
BSTAR          = .18555237E-2
MEAN_MOTION_DOT = .387584E-2
MEAN_MOTION_DDOT = 0

CCSDS_OMM_VERS = 2.0
CREATION_DATE  = 
ORIGINATOR     = 

OBJECT_NAME    = STARLINK-36784
OBJECT_ID      = 2026-034AD
CENTER_NAME    = EARTH
REF_FRAME      = TEME
TIME_SYSTEM    = UTC
MEAN_ELEMENT_THEORY = SGP/SGP4

EPOCH          = 2026-03-18T16:31:59.212128
MEAN_MOTION    = 15.79363408
ECCENTRICITY   = .0009869
INCLINATION    = 53.1560
RA_OF_ASC_NODE = 166.0188
ARG_OF_PERICENTER = 14.1664
MEAN_ANOMALY   = 345.9633

EPHEMERIS_TYPE = 0
CLASSIFICATION_TYPE = U
NORAD_CAT_ID   = 67877
ELEMENT_SET_NO = 999
REV_AT_EPOCH   = 536
BSTAR          = .14892E-2
MEAN_MOTION_DOT = .283577E-2
MEAN_MOTION_DDOT = 0

CCSDS_OMM_VERS = 2.0
CREATION_DATE  = 
ORIGINATOR     = 

OBJECT_NAME    = STARLINK-36689
OBJECT_ID      = 2026-034AE
CENTER_NAME    = EARTH
REF_FRAME      = TEME
TIME_SYSTEM    = UTC
MEAN_ELEMENT_THEORY = SGP/SGP4

EPOCH          = 2026-03-18T10:26:16.220544
MEAN_MOTION    = 15.81076573
ECCENTRICITY   = .00032399
INCLINATION    = 53.1595
RA_OF_ASC_NODE = 167.2801
ARG_OF_PERICENTER = 168.6977
MEAN_ANOMALY   = 191.4120

EPHEMERIS_TYPE = 0
CLASSIFICATION_TYPE = U
NORAD_CAT_ID   = 67878
ELEMENT_SET_NO = 999
REV_AT_EPOCH   = 532
BSTAR          = .16031291E-2
MEAN_MOTION_DOT = .331265E-2
MEAN_MOTION_DDOT = 0

CCSDS_OMM_VERS = 2.0
CREATION_DATE  = 
ORIGINATOR     = 

OBJECT_NAME    = STARLINK-36818
OBJECT_ID      = 2026-035A
CENTER_NAME    = EARTH
REF_FRAME      = TEME
TIME_SYSTEM    = UTC
MEAN_ELEMENT_THEORY = SGP/SGP4

EPOCH          = 2026-03-18T20:18:54.836928
MEAN_MOTION    = 15.75216391
ECCENTRICITY   = .0000483
INCLINATION    = 97.2872
RA_OF_ASC_NODE = 10.6760
ARG_OF_PERICENTER = 20.9905
MEAN_ANOMALY   = 339.1380

EPHEMERIS_TYPE = 0
CLASSIFICATION_TYPE = U
NORAD_CAT_ID   = 67879
ELEMENT_SET_NO = 999
REV_AT_EPOCH   = 528
BSTAR          = .92939E-3
MEAN_MOTION_DOT = .140966E-2
MEAN_MOTION_DDOT = 0

CCSDS_OMM_VERS = 2.0
CREATION_DATE  = 
ORIGINATOR     = 

OBJECT_NAME    = STARLINK-36821
OBJECT_ID      = 2026-035B
CENTER_NAME    = EARTH
REF_FRAME      = TEME
TIME_SYSTEM    = UTC
MEAN_ELEMENT_THEORY = SGP/SGP4

EPOCH          = 2026-03-18T20:00:01.999008
MEAN_MOTION    = 15.75197705
ECCENTRICITY   = .0001609
INCLINATION    = 97.2907
RA_OF_ASC_NODE = 10.6706
ARG_OF_PERICENTER = 109.1582
MEAN_ANOMALY   = 192.6625

EPHEMERIS_TYPE = 0
CLASSIFICATION_TYPE = U
NORAD_CAT_ID   = 67880
ELEMENT_SET_NO = 999
REV_AT_EPOCH   = 522
BSTAR          = -.20018E-3
MEAN_MOTION_DOT = -.29895E-3
MEAN_MOTION_DDOT = 0

CCSDS_OMM_VERS = 2.0
CREATION_DATE  = 
ORIGINATOR     = 

OBJECT_NAME    = STARLINK-36808
OBJECT_ID      = 2026-035C
CENTER_NAME    = EARTH
REF_FRAME      = TEME
TIME_SYSTEM    = UTC
MEAN_ELEMENT_THEORY = SGP/SGP4

EPOCH          = 2026-03-18T18:23:11.513472
MEAN_MOTION    = 15.80959051
ECCENTRICITY   = .0002039
INCLINATION    = 97.2875
RA_OF_ASC_NODE = 10.6289
ARG_OF_PERICENTER = 112.2453
MEAN_ANOMALY   = 247.9032

EPHEMERIS_TYPE = 0
CLASSIFICATION_TYPE = U
NORAD_CAT_ID   = 67881
ELEMENT_SET_NO = 999
REV_AT_EPOCH   = 527
BSTAR          = .14914E-2
MEAN_MOTION_DOT = .297422E-2
MEAN_MOTION_DDOT = 0

CCSDS_OMM_VERS = 2.0
CREATION_DATE  = 
ORIGINATOR     = 

OBJECT_NAME    = STARLINK-36817
OBJECT_ID      = 2026-035D
CENTER_NAME    = EARTH
REF_FRAME      = TEME
TIME_SYSTEM    = UTC
MEAN_ELEMENT_THEORY = SGP/SGP4

EPOCH          = 2026-03-18T18:19:56.653824
MEAN_MOTION    = 15.81040249
ECCENTRICITY   = .0002133
INCLINATION    = 97.2887
RA_OF_ASC_NODE = 10.6309
ARG_OF_PERICENTER = 131.0446
MEAN_ANOMALY   = 229.1007

EPHEMERIS_TYPE = 0
CLASSIFICATION_TYPE = U
NORAD_CAT_ID   = 67882
ELEMENT_SET_NO = 999
REV_AT_EPOCH   = 527
BSTAR          = .24399E-2
MEAN_MOTION_DOT = .500099E-2
MEAN_MOTION_DDOT = 0

CCSDS_OMM_VERS = 2.0
CREATION_DATE  = 
ORIGINATOR     = 

OBJECT_NAME    = STARLINK-36856
OBJECT_ID      = 2026-035E
CENTER_NAME    = EARTH
REF_FRAME      = TEME
TIME_SYSTEM    = UTC
MEAN_ELEMENT_THEORY = SGP/SGP4

EPOCH          = 2026-03-18T21:23:59.430048
MEAN_MOTION    = 15.78827689
ECCENTRICITY   = .0001381
INCLINATION    = 97.2881
RA_OF_ASC_NODE = 10.7631
ARG_OF_PERICENTER = 224.5706
MEAN_ANOMALY   = 135.5450

EPHEMERIS_TYPE = 0
CLASSIFICATION_TYPE = U
NORAD_CAT_ID   = 67883
ELEMENT_SET_NO = 999
REV_AT_EPOCH   = 529
BSTAR          = -.45169E-2
MEAN_MOTION_DOT = -.727772E-2
MEAN_MOTION_DDOT = 0

CCSDS_OMM_VERS = 2.0
CREATION_DATE  = 
ORIGINATOR     = 

OBJECT_NAME    = STARLINK-36842
OBJECT_ID      = 2026-035F
CENTER_NAME    = EARTH
REF_FRAME      = TEME
TIME_SYSTEM    = UTC
MEAN_ELEMENT_THEORY = SGP/SGP4

EPOCH          = 2026-03-18T20:00:01.999008
MEAN_MOTION    = 15.75199305
ECCENTRICITY   = .0001485
INCLINATION    = 97.2907
RA_OF_ASC_NODE = 10.6755
ARG_OF_PERICENTER = 99.6950
MEAN_ANOMALY   = 218.1228

EPHEMERIS_TYPE = 0
CLASSIFICATION_TYPE = U
NORAD_CAT_ID   = 67884
ELEMENT_SET_NO = 999
REV_AT_EPOCH   = 522
BSTAR          = -.16999E-3
MEAN_MOTION_DOT = -.25421E-3
MEAN_MOTION_DDOT = 0

CCSDS_OMM_VERS = 2.0
CREATION_DATE  = 
ORIGINATOR     = 

OBJECT_NAME    = STARLINK-36826
OBJECT_ID      = 2026-035G
CENTER_NAME    = EARTH
REF_FRAME      = TEME
TIME_SYSTEM    = UTC
MEAN_ELEMENT_THEORY = SGP/SGP4

EPOCH          = 2026-03-18T20:00:01.999008
MEAN_MOTION    = 15.75195857
ECCENTRICITY   = .000106
INCLINATION    = 97.2858
RA_OF_ASC_NODE = 10.6970
ARG_OF_PERICENTER = 89.9082
MEAN_ANOMALY   = 277.9137

EPHEMERIS_TYPE = 0
CLASSIFICATION_TYPE = U
NORAD_CAT_ID   = 67885
ELEMENT_SET_NO = 999
REV_AT_EPOCH   = 522
BSTAR          = -.23138E-3
MEAN_MOTION_DOT = -.3451E-3
MEAN_MOTION_DDOT = 0

