STARLINK-36730          
1 67874U 26034AA  26077.62757102  .00239549  00000+0  11807-2 0  9999
2 67874  53.1593 166.3498 0000915  88.0025 272.1102 15.80930516  5351
STARLINK-36727          
1 67875U 26034AB  26077.43716304  .00524302  00000+0  24661-2 0  9994
2 67875  53.1599 167.2971 0000947 181.3717 178.7303 15.81186299  5327
STARLINK-36743          
1 67876U 26034AC  26077.43641218  .00387584  00000+0  18555-2 0  9990
2 67876  53.1603 167.2902 0000357 189.6177 170.4840 15.81160867  5322
STARLINK-36784          
1 67877U 26034AD  26077.68887977  .00283577  00000+0  14892-2 0  9999
2 67877  53.1560 166.0188 0009869  14.1664 345.9633 15.79363408  5364
STARLINK-36689          
1 67878U 26034AE  26077.43490996  .00331265  00000+0  16031-2 0  9999
2 67878  53.1595 167.2801 0003239 168.6977 191.4120 15.81076573  5323
STARLINK-36818          
1 67879U 26035A   26077.84646802  .00140966  00000+0  92939-3 0  9993
2 67879  97.2872  10.6760 0000483  20.9905 339.1380 15.75216391  5286
STARLINK-36821          
1 67880U 26035B   26077.83335647 -.00029895  00000+0 -20018-3 0  9994
2 67880  97.2907  10.6706 0001609 109.1582 192.6625 15.75197705  5224
STARLINK-36808          
1 67881U 26035C   26077.76610548  .00297422  00000+0  14914-2 0  9991
2 67881  97.2875  10.6289 0002039 112.2453 247.9032 15.80959051  5272
STARLINK-36817          
1 67882U 26035D   26077.76385016  .00500099  00000+0  24399-2 0  9996
2 67882  97.2887  10.6309 0002133 131.0446 229.1007 15.81040249  5270
STARLINK-36856          
1 67883U 26035E   26077.89166007 -.00727772  00000+0 -45169-2 0  9997
2 67883  97.2881  10.7631 0001381 224.5706 135.5450 15.78827689  5296
STARLINK-36842          
1 67884U 26035F   26077.83335647 -.00025421  00000+0 -16999-3 0  9992
2 67884  97.2907  10.6755 0001485  99.6950 218.1228 15.75199305  5227
STARLINK-36826          
1 67885U 26035G   26077.83335647 -.00034510  00000+0 -23138-3 0  9995
2 67885  97.2858  10.6970 0001060  89.9082 277.9137 15.75195857  5229
